start=new Date('2023-02-04T00:00:00.000Z').valueOf();
sats=[{"OBJECT_TYPE":"PAYLOAD","OBJECT_ID":"2022-119AL","BSTAR":"0.00055975000000","INCLINATION":"53.2180","REV_AT_EPOCH":"2117","ARG_OF_PERICENTER":"85.9465","LAUNCH_DATE":"2022-09-24","NORAD_CAT_ID":"53920","TIME_SYSTEM":"UTC","ECCENTRICITY":"0.00013820","CENTER_NAME":"EARTH","PERIAPSIS":"538.729","MEAN_MOTION":"15.08859707","MEAN_MOTION_DDOT":"0.0000000000000","COUNTRY_CODE":"US","GP_ID":"224315465","MEAN_ELEMENT_THEORY":"SGP4","SITE":"AFETR","EPOCH":"2023-02-03T06:35:54.280320","RA_OF_ASC_NODE":"348.5325","PERIOD":"95.436","OBJECT_NAME":"STARLINK-5025","APOAPSIS":"540.641","TLE_LINE1":"1 53920U 22119AL  23034.27493380  .00008636  00000-0  55975-3 0  9999","EPHEMERIS_TYPE":"0","REF_FRAME":"TEME","CLASSIFICATION_TYPE":"U","MEAN_ANOMALY":"274.1685","DECAY_DATE":null,"SEMIMAJOR_AXIS":"6917.820","TLE_LINE2":"2 53920  53.2180 348.5325 0001382  85.9465 274.1685 15.08859707 21175","MEAN_MOTION_DOT":"0.00008636","RCS_SIZE":"LARGE","FILE":"3770323","ELEMENT_SET_NO":"999"},{"ECCENTRICITY":"0.00014130","NORAD_CAT_ID":"53922","TIME_SYSTEM":"UTC","REV_AT_EPOCH":"2117","ARG_OF_PERICENTER":"90.6088","LAUNCH_DATE":"2022-09-24","OBJECT_ID":"2022-119AN","OBJECT_TYPE":"PAYLOAD","BSTAR":"0.00070333000000","INCLINATION":"53.2169","GP_ID":"224315715","MEAN_ELEMENT_THEORY":"SGP4","SITE":"AFETR","EPOCH":"2023-02-03T06:30:36.157248","COUNTRY_CODE":"US","MEAN_MOTION":"15.08857314","MEAN_MOTION_DDOT":"0.0000000000000","CENTER_NAME":"EARTH","PERIAPSIS":"538.715","TLE_LINE1":"1 53922U 22119AN  23034.27125182  .00010928  00000-0  70333-3 0  9995","EPHEMERIS_TYPE":"0","REF_FRAME":"TEME","APOAPSIS":"540.670","OBJECT_NAME":"STARLINK-5002","PERIOD":"95.436","RA_OF_ASC_NODE":"348.5046","FILE":"3770323","ELEMENT_SET_NO":"999","SEMIMAJOR_AXIS":"6917.827","TLE_LINE2":"2 53922  53.2169 348.5046 0001413  90.6088 269.5066 15.08857314 21176","MEAN_MOTION_DOT":"0.00010928","RCS_SIZE":"LARGE","DECAY_DATE":null,"CLASSIFICATION_TYPE":"U","MEAN_ANOMALY":"269.5066"},{"CENTER_NAME":"EARTH","PERIAPSIS":"538.870","MEAN_MOTION":"15.08854503","MEAN_MOTION_DDOT":"0.0000000000000","COUNTRY_CODE":"US","MEAN_ELEMENT_THEORY":"SGP4","GP_ID":"224314465","SITE":"AFETR","EPOCH":"2023-02-03T06:41:11.709600","OBJECT_TYPE":"PAYLOAD","OBJECT_ID":"2022-119AP","BSTAR":"0.00006950600000","INCLINATION":"53.2186","REV_AT_EPOCH":"2117","LAUNCH_DATE":"2022-09-24","ARG_OF_PERICENTER":"104.4416","NORAD_CAT_ID":"53923","TIME_SYSTEM":"UTC","ECCENTRICITY":"0.00012010","CLASSIFICATION_TYPE":"U","MEAN_ANOMALY":"255.6710","DECAY_DATE":null,"SEMIMAJOR_AXIS":"6917.836","TLE_LINE2":"2 53923  53.2186 348.5498 0001201 104.4416 255.6710 15.08854503 21170","MEAN_MOTION_DOT":"0.00000819","RCS_SIZE":"LARGE","FILE":"3770323","ELEMENT_SET_NO":"999","RA_OF_ASC_NODE":"348.5498","PERIOD":"95.437","OBJECT_NAME":"STARLINK-5004","APOAPSIS":"540.532","TLE_LINE1":"1 53923U 22119AP  23034.27860775  .00000819  00000-0  69506-4 0  9999","EPHEMERIS_TYPE":"0","REF_FRAME":"TEME"},{"COUNTRY_CODE":"US","GP_ID":"224349720","SITE":"AFETR","MEAN_ELEMENT_THEORY":"SGP4","EPOCH":"2023-02-03T19:50:13.551936","CENTER_NAME":"EARTH","PERIAPSIS":"538.727","MEAN_MOTION":"15.08838142","MEAN_MOTION_DDOT":"0.0000000000000","NORAD_CAT_ID":"53924","TIME_SYSTEM":"UTC","ECCENTRICITY":"0.00014810","OBJECT_TYPE":"PAYLOAD","OBJECT_ID":"2022-119AQ","BSTAR":"0.00013406000000","INCLINATION":"53.2179","REV_AT_EPOCH":"2132","ARG_OF_PERICENTER":"89.1173","LAUNCH_DATE":"2022-09-24","SEMIMAJOR_AXIS":"6917.886","TLE_LINE2":"2 53924  53.2179 341.2966 0001481  89.1173 270.9989 15.08838142 21328","MEAN_MOTION_DOT":"0.00001846","RCS_SIZE":"LARGE","FILE":"3770748","ELEMENT_SET_NO":"999","CLASSIFICATION_TYPE":"U","MEAN_ANOMALY":"270.9989","DECAY_DATE":null,"APOAPSIS":"540.776","OBJECT_NAME":"STARLINK-5001","TLE_LINE1":"1 53924U 22119AQ  23034.82654574  .00001846  00000-0  13406-3 0  9997","EPHEMERIS_TYPE":"0","REF_FRAME":"TEME","RA_OF_ASC_NODE":"341.2966","PERIOD":"95.438"},{"NORAD_CAT_ID":"53925","TIME_SYSTEM":"UTC","ECCENTRICITY":"0.00012830","OBJECT_ID":"2022-119AR","OBJECT_TYPE":"PAYLOAD","BSTAR":"0.00029447000000","INCLINATION":"53.2177","REV_AT_EPOCH":"2117","ARG_OF_PERICENTER":"90.8928","LAUNCH_DATE":"2022-09-24","COUNTRY_CODE":"US","MEAN_ELEMENT_THEORY":"SGP4","GP_ID":"224314966","SITE":"AFETR","EPOCH":"2023-02-03T06:09:22.649760","CENTER_NAME":"EARTH","PERIAPSIS":"538.823","MEAN_MOTION":"15.08851361","MEAN_MOTION_DDOT":"0.0000000000000","APOAPSIS":"540.598","OBJECT_NAME":"STARLINK-5011","TLE_LINE1":"1 53925U 22119AR  23034.25651215  .00004403  00000-0  29447-3 0  9998","EPHEMERIS_TYPE":"0","REF_FRAME":"TEME","RA_OF_ASC_NODE":"348.4227","PERIOD":"95.437","SEMIMAJOR_AXIS":"6917.846","TLE_LINE2":"2 53925  53.2177 348.4227 0001283  90.8928 269.2212 15.08851361 21174","MEAN_MOTION_DOT":"0.00004403","RCS_SIZE":"LARGE","FILE":"3770323","ELEMENT_SET_NO":"999","CLASSIFICATION_TYPE":"U","MEAN_ANOMALY":"269.2212","DECAY_DATE":null},{"CENTER_NAME":"EARTH","PERIAPSIS":"538.408","MEAN_MOTION":"15.08845783","MEAN_MOTION_DDOT":"0.0000000000000","COUNTRY_CODE":"US","SITE":"AFETR","GP_ID":"224350220","MEAN_ELEMENT_THEORY":"SGP4","EPOCH":"2023-02-03T19:18:23.146848","OBJECT_TYPE":"PAYLOAD","OBJECT_ID":"2022-119AS","BSTAR":"0.00019654000000","INCLINATION":"53.2181","REV_AT_EPOCH":"2133","LAUNCH_DATE":"2022-09-24","ARG_OF_PERICENTER":"80.7190","NORAD_CAT_ID":"53926","TIME_SYSTEM":"UTC","ECCENTRICITY":"0.00019070","CLASSIFICATION_TYPE":"U","MEAN_ANOMALY":"279.4018","DECAY_DATE":null,"SEMIMAJOR_AXIS":"6917.863","TLE_LINE2":"2 53926  53.2181 341.1639 0001907  80.7190 279.4018 15.08845783 21335","MEAN_MOTION_DOT":"0.00002842","RCS_SIZE":"LARGE","FILE":"3770748","ELEMENT_SET_NO":"999","RA_OF_ASC_NODE":"341.1639","PERIOD":"95.437","OBJECT_NAME":"STARLINK-5014","APOAPSIS":"541.047","TLE_LINE1":"1 53926U 22119AS  23034.80443457  .00002842  00000-0  19654-3 0  9991","EPHEMERIS_TYPE":"0","REF_FRAME":"TEME"},{"TLE_LINE2":"2 53927  53.2205 341.2812 0001748 112.3211 247.7967 15.09358890 21325","SEMIMAJOR_AXIS":"6916.295","RCS_SIZE":"LARGE","MEAN_MOTION_DOT":"0.00029268","ELEMENT_SET_NO":"999","FILE":"3770748","CLASSIFICATION_TYPE":"U","MEAN_ANOMALY":"247.7967","DECAY_DATE":null,"OBJECT_NAME":"STARLINK-5008","APOAPSIS":"539.369","EPHEMERIS_TYPE":"0","TLE_LINE1":"1 53927U 22119AT  23034.82201697  .00029268  00000-0  18234-2 0  9995","REF_FRAME":"TEME","RA_OF_ASC_NODE":"341.2812","PERIOD":"95.405","COUNTRY_CODE":"US","EPOCH":"2023-02-03T19:43:42.266208","GP_ID":"224350470","MEAN_ELEMENT_THEORY":"SGP4","SITE":"AFETR","PERIAPSIS":"536.951","CENTER_NAME":"EARTH","MEAN_MOTION":"15.09358890","MEAN_MOTION_DDOT":"0.0000000000000","NORAD_CAT_ID":"53927","TIME_SYSTEM":"UTC","ECCENTRICITY":"0.00017480","OBJECT_TYPE":"PAYLOAD","OBJECT_ID":"2022-119AT","INCLINATION":"53.2205","BSTAR":"0.00182340000000","REV_AT_EPOCH":"2132","LAUNCH_DATE":"2022-09-24","ARG_OF_PERICENTER":"112.3211"},{"EPHEMERIS_TYPE":"0","TLE_LINE1":"1 53928U 22119AU  23034.28321769  .00000714  00000-0  62906-4 0  9991","REF_FRAME":"TEME","OBJECT_NAME":"STARLINK-5009","APOAPSIS":"540.575","PERIOD":"95.437","RA_OF_ASC_NODE":"338.6015","ELEMENT_SET_NO":"999","FILE":"3770323","TLE_LINE2":"2 53928  53.2183 338.6015 0001269  82.9358 277.1778 15.08855932 21312","SEMIMAJOR_AXIS":"6917.832","RCS_SIZE":"LARGE","MEAN_MOTION_DOT":"0.00000714","DECAY_DATE":null,"CLASSIFICATION_TYPE":"U","MEAN_ANOMALY":"277.1778","ECCENTRICITY":"0.00012690","NORAD_CAT_ID":"53928","TIME_SYSTEM":"UTC","REV_AT_EPOCH":"2131","LAUNCH_DATE":"2022-09-24","ARG_OF_PERICENTER":"82.9358","OBJECT_TYPE":"PAYLOAD","OBJECT_ID":"2022-119AU","INCLINATION":"53.2183","BSTAR":"0.00006290600000","EPOCH":"2023-02-03T06:47:50.008416","GP_ID":"224314216","MEAN_ELEMENT_THEORY":"SGP4","SITE":"AFETR","COUNTRY_CODE":"US","MEAN_MOTION":"15.08855932","MEAN_MOTION_DDOT":"0.0000000000000","PERIAPSIS":"538.819","CENTER_NAME":"EARTH"},{"REV_AT_EPOCH":"2123","LAUNCH_DATE":"2022-09-24","ARG_OF_PERICENTER":"128.2548","OBJECT_ID":"2022-119AV","OBJECT_TYPE":"PAYLOAD","BSTAR":"-0.00000302720000","INCLINATION":"53.2195","ECCENTRICITY":"0.00011320","NORAD_CAT_ID":"53929","TIME_SYSTEM":"UTC","MEAN_MOTION":"15.08832912","MEAN_MOTION_DDOT":"0.0000000000000","CENTER_NAME":"EARTH","PERIAPSIS":"538.984","GP_ID":"224349470","SITE":"AFETR","MEAN_ELEMENT_THEORY":"SGP4","EPOCH":"2023-02-03T15:57:36.855360","COUNTRY_CODE":"US","PERIOD":"95.438","RA_OF_ASC_NODE":"346.7010","TLE_LINE1":"1 53929U 22119AV  23034.66500990 -.00000336  00000-0 -30272-5 0  9993","EPHEMERIS_TYPE":"0","REF_FRAME":"TEME","OBJECT_NAME":"STARLINK-5018","APOAPSIS":"540.550","DECAY_DATE":null,"CLASSIFICATION_TYPE":"U","MEAN_ANOMALY":"231.8546","FILE":"3770748","ELEMENT_SET_NO":"999","SEMIMAJOR_AXIS":"6917.902","TLE_LINE2":"2 53929  53.2195 346.7010 0001132 128.2548 231.8546 15.08832912 21239","MEAN_MOTION_DOT":"-0.00000336","RCS_SIZE":"LARGE"},{"MEAN_MOTION_DDOT":"0.0000000000000","MEAN_MOTION":"15.08847293","CENTER_NAME":"EARTH","PERIAPSIS":"538.939","GP_ID":"224315716","MEAN_ELEMENT_THEORY":"SGP4","SITE":"AFETR","EPOCH":"2023-02-03T04:52:36.741792","COUNTRY_CODE":"US","LAUNCH_DATE":"2022-09-24","ARG_OF_PERICENTER":"80.5582","REV_AT_EPOCH":"2130","BSTAR":"0.00002119000000","INCLINATION":"53.2190","OBJECT_TYPE":"PAYLOAD","OBJECT_ID":"2022-119AW","ECCENTRICITY":"0.00011330","TIME_SYSTEM":"UTC","NORAD_CAT_ID":"53930","DECAY_DATE":null,"MEAN_ANOMALY":"279.5539","CLASSIFICATION_TYPE":"U","FILE":"3770323","ELEMENT_SET_NO":"999","MEAN_MOTION_DOT":"0.00000049","RCS_SIZE":"LARGE","SEMIMAJOR_AXIS":"6917.858","TLE_LINE2":"2 53930  53.2190 338.8145 0001133  80.5582 279.5539 15.08847293 21303","PERIOD":"95.437","RA_OF_ASC_NODE":"338.8145","REF_FRAME":"TEME","TLE_LINE1":"1 53930U 22119AW  23034.20320303  .00000049  00000-0  21190-4 0  9990","EPHEMERIS_TYPE":"0","APOAPSIS":"540.507","OBJECT_NAME":"STARLINK-5010"}];
